PHISAT 2                
1 60470U 24149C   26068.78834181  .00008925  00000+0  31421-3 0  9996
2 60470  97.3806 148.6498 0001175 168.6230 191.5037 15.29548631 86792
STARLINK-34208          
1 64740U 25144S   26068.53827562  .00023343  00000+0  79748-3 0  9999
2 64740  53.1575 179.2599 0001440 129.4289 230.6839 15.30211693 39728
